<?xml version="1.0" encoding="UTF-8"?>
<ndm xmlns:xsi="http://www.w3.org/2001/XMLSchema-instance" xsi:noNamespaceSchemaLocation="https://sanaregistry.org/r/ndmxml_unqualified/ndmxml-2.0.0-master-2.0.xsd">
<omm id="CCSDS_OMM_VERS" version="2.0">
<header><CREATION_DATE/><ORIGINATOR/></header><body><segment><metadata><OBJECT_NAME>KUIPER-00152</OBJECT_NAME><OBJECT_ID>2025-217L</OBJECT_ID><CENTER_NAME>EARTH</CENTER_NAME><REF_FRAME>TEME</REF_FRAME><TIME_SYSTEM>UTC</TIME_SYSTEM><MEAN_ELEMENT_THEORY>SGP4</MEAN_ELEMENT_THEORY></metadata><data><meanElements><EPOCH>2025-10-13T06:11:26.494656</EPOCH><MEAN_MOTION>15.37092177</MEAN_MOTION><ECCENTRICITY>.00022965</ECCENTRICITY><INCLINATION>51.8750</INCLINATION><RA_OF_ASC_NODE>356.6380</RA_OF_ASC_NODE><ARG_OF_PERICENTER>74.2032</ARG_OF_PERICENTER><MEAN_ANOMALY>285.9208</MEAN_ANOMALY></meanElements><tleParameters><EPHEMERIS_TYPE>0</EPHEMERIS_TYPE><CLASSIFICATION_TYPE>U</CLASSIFICATION_TYPE><NORAD_CAT_ID>65772</NORAD_CAT_ID><ELEMENT_SET_NO>999</ELEMENT_SET_NO><REV_AT_EPOCH>274</REV_AT_EPOCH><BSTAR>.11330592E-2</BSTAR><MEAN_MOTION_DOT>.41616E-3</MEAN_MOTION_DOT><MEAN_MOTION_DDOT>0</MEAN_MOTION_DDOT></tleParameters></data></segment></body></omm>
<omm id="CCSDS_OMM_VERS" version="2.0">
<header><CREATION_DATE/><ORIGINATOR/></header><body><segment><metadata><OBJECT_NAME>KUIPER-00153</OBJECT_NAME><OBJECT_ID>2025-217M</OBJECT_ID><CENTER_NAME>EARTH</CENTER_NAME><REF_FRAME>TEME</REF_FRAME><TIME_SYSTEM>UTC</TIME_SYSTEM><MEAN_ELEMENT_THEORY>SGP4</MEAN_ELEMENT_THEORY></metadata><data><meanElements><EPOCH>2025-10-13T06:47:59.629056</EPOCH><MEAN_MOTION>15.34856034</MEAN_MOTION><ECCENTRICITY>.00086221</ECCENTRICITY><INCLINATION>51.8645</INCLINATION><RA_OF_ASC_NODE>356.8054</RA_OF_ASC_NODE><ARG_OF_PERICENTER>167.8030</ARG_OF_PERICENTER><MEAN_ANOMALY>192.3165</MEAN_ANOMALY></meanElements><tleParameters><EPHEMERIS_TYPE>0</EPHEMERIS_TYPE><CLASSIFICATION_TYPE>U</CLASSIFICATION_TYPE><NORAD_CAT_ID>65773</NORAD_CAT_ID><ELEMENT_SET_NO>999</ELEMENT_SET_NO><REV_AT_EPOCH>274</REV_AT_EPOCH><BSTAR>.12509067E-2</BSTAR><MEAN_MOTION_DOT>.42832E-3</MEAN_MOTION_DOT><MEAN_MOTION_DDOT>0</MEAN_MOTION_DDOT></tleParameters></data></segment></body></omm>
<omm id="CCSDS_OMM_VERS" version="2.0">
<header><CREATION_DATE/><ORIGINATOR/></header><body><segment><metadata><OBJECT_NAME>KUIPER-00155</OBJECT_NAME><OBJECT_ID>2025-217N</OBJECT_ID><CENTER_NAME>EARTH</CENTER_NAME><REF_FRAME>TEME</REF_FRAME><TIME_SYSTEM>UTC</TIME_SYSTEM><MEAN_ELEMENT_THEORY>SGP4</MEAN_ELEMENT_THEORY></metadata><data><meanElements><EPOCH>2025-10-13T06:35:36.602880</EPOCH><MEAN_MOTION>15.35605957</MEAN_MOTION><ECCENTRICITY>.00055189</ECCENTRICITY><INCLINATION>51.8682</INCLINATION><RA_OF_ASC_NODE>356.7537</RA_OF_ASC_NODE><ARG_OF_PERICENTER>156.5280</ARG_OF_PERICENTER><MEAN_ANOMALY>203.5959</MEAN_ANOMALY></meanElements><tleParameters><EPHEMERIS_TYPE>0</EPHEMERIS_TYPE><CLASSIFICATION_TYPE>U</CLASSIFICATION_TYPE><NORAD_CAT_ID>65774</NORAD_CAT_ID><ELEMENT_SET_NO>999</ELEMENT_SET_NO><REV_AT_EPOCH>274</REV_AT_EPOCH><BSTAR>.89821607E-3</BSTAR><MEAN_MOTION_DOT>.31328E-3</MEAN_MOTION_DOT><MEAN_MOTION_DDOT>0</MEAN_MOTION_DDOT></tleParameters></data></segment></body></omm>
<omm id="CCSDS_OMM_VERS" version="2.0">
<header><CREATION_DATE/><ORIGINATOR/></header><body><segment><metadata><OBJECT_NAME>KUIPER-00156</OBJECT_NAME><OBJECT_ID>2025-217P</OBJECT_ID><CENTER_NAME>EARTH</CENTER_NAME><REF_FRAME>TEME</REF_FRAME><TIME_SYSTEM>UTC</TIME_SYSTEM><MEAN_ELEMENT_THEORY>SGP4</MEAN_ELEMENT_THEORY></metadata><data><meanElements><EPOCH>2025-10-13T04:42:53.500320</EPOCH><MEAN_MOTION>15.36775919</MEAN_MOTION><ECCENTRICITY>.00026305</ECCENTRICITY><INCLINATION>51.8748</INCLINATION><RA_OF_ASC_NODE>356.9791</RA_OF_ASC_NODE><ARG_OF_PERICENTER>103.2875</ARG_OF_PERICENTER><MEAN_ANOMALY>256.8405</MEAN_ANOMALY></meanElements><tleParameters><EPHEMERIS_TYPE>0</EPHEMERIS_TYPE><CLASSIFICATION_TYPE>U</CLASSIFICATION_TYPE><NORAD_CAT_ID>65775</NORAD_CAT_ID><ELEMENT_SET_NO>999</ELEMENT_SET_NO><REV_AT_EPOCH>273</REV_AT_EPOCH><BSTAR>.13796854E-2</BSTAR><MEAN_MOTION_DOT>.503E-3</MEAN_MOTION_DOT><MEAN_MOTION_DDOT>0</MEAN_MOTION_DDOT></tleParameters></data></segment></body></omm>
<omm id="CCSDS_OMM_VERS" version="2.0">
<header><CREATION_DATE/><ORIGINATOR/></header><body><segment><metadata><OBJECT_NAME>KUIPER-00158</OBJECT_NAME><OBJECT_ID>2025-217Q</OBJECT_ID><CENTER_NAME>EARTH</CENTER_NAME><REF_FRAME>TEME</REF_FRAME><TIME_SYSTEM>UTC</TIME_SYSTEM><MEAN_ELEMENT_THEORY>SGP4</MEAN_ELEMENT_THEORY></metadata><data><meanElements><EPOCH>2025-10-13T06:31:59.881440</EPOCH><MEAN_MOTION>15.35848295</MEAN_MOTION><ECCENTRICITY>.00053416</ECCENTRICITY><INCLINATION>51.8721</INCLINATION><RA_OF_ASC_NODE>356.7379</RA_OF_ASC_NODE><ARG_OF_PERICENTER>151.0535</ARG_OF_PERICENTER><MEAN_ANOMALY>209.0748</MEAN_ANOMALY></meanElements><tleParameters><EPHEMERIS_TYPE>0</EPHEMERIS_TYPE><CLASSIFICATION_TYPE>U</CLASSIFICATION_TYPE><NORAD_CAT_ID>65776</NORAD_CAT_ID><ELEMENT_SET_NO>999</ELEMENT_SET_NO><REV_AT_EPOCH>274</REV_AT_EPOCH><BSTAR>.12828034E-2</BSTAR><MEAN_MOTION_DOT>.45342E-3</MEAN_MOTION_DOT><MEAN_MOTION_DDOT>0</MEAN_MOTION_DDOT></tleParameters></data></segment></body></omm>
<omm id="CCSDS_OMM_VERS" version="2.0">
<header><CREATION_DATE/><ORIGINATOR/></header><body><segment><metadata><OBJECT_NAME>KUIPER-00163</OBJECT_NAME><OBJECT_ID>2025-217R</OBJECT_ID><CENTER_NAME>EARTH</CENTER_NAME><REF_FRAME>TEME</REF_FRAME><TIME_SYSTEM>UTC</TIME_SYSTEM><MEAN_ELEMENT_THEORY>SGP4</MEAN_ELEMENT_THEORY></metadata><data><meanElements><EPOCH>2025-10-13T06:45:39.302496</EPOCH><MEAN_MOTION>15.35016887</MEAN_MOTION><ECCENTRICITY>.00081186</ECCENTRICITY><INCLINATION>51.8634</INCLINATION><RA_OF_ASC_NODE>356.7937</RA_OF_ASC_NODE><ARG_OF_PERICENTER>168.7492</ARG_OF_PERICENTER><MEAN_ANOMALY>191.3676</MEAN_ANOMALY></meanElements><tleParameters><EPHEMERIS_TYPE>0</EPHEMERIS_TYPE><CLASSIFICATION_TYPE>U</CLASSIFICATION_TYPE><NORAD_CAT_ID>65777</NORAD_CAT_ID><ELEMENT_SET_NO>999</ELEMENT_SET_NO><REV_AT_EPOCH>274</REV_AT_EPOCH><BSTAR>.1382129E-2</BSTAR><MEAN_MOTION_DOT>.47635E-3</MEAN_MOTION_DOT><MEAN_MOTION_DDOT>0</MEAN_MOTION_DDOT></tleParameters></data></segment></body></omm>
<omm id="CCSDS_OMM_VERS" version="2.0">
<header><CREATION_DATE/><ORIGINATOR/></header><body><segment><metadata><OBJECT_NAME>KUIPER-00165</OBJECT_NAME><OBJECT_ID>2025-217S</OBJECT_ID><CENTER_NAME>EARTH</CENTER_NAME><REF_FRAME>TEME</REF_FRAME><TIME_SYSTEM>UTC</TIME_SYSTEM><MEAN_ELEMENT_THEORY>SGP4</MEAN_ELEMENT_THEORY></metadata><data><meanElements><EPOCH>2025-10-13T06:25:03.614880</EPOCH><MEAN_MOTION>15.36247062</MEAN_MOTION><ECCENTRICITY>.00041415</ECCENTRICITY><INCLINATION>51.8727</INCLINATION><RA_OF_ASC_NODE>356.7071</RA_OF_ASC_NODE><ARG_OF_PERICENTER>128.8437</ARG_OF_PERICENTER><MEAN_ANOMALY>231.2919</MEAN_ANOMALY></meanElements><tleParameters><EPHEMERIS_TYPE>0</EPHEMERIS_TYPE><CLASSIFICATION_TYPE>U</CLASSIFICATION_TYPE><NORAD_CAT_ID>65778</NORAD_CAT_ID><ELEMENT_SET_NO>999</ELEMENT_SET_NO><REV_AT_EPOCH>274</REV_AT_EPOCH><BSTAR>.92476247E-3</BSTAR><MEAN_MOTION_DOT>.32943E-3</MEAN_MOTION_DOT><MEAN_MOTION_DDOT>0</MEAN_MOTION_DDOT></tleParameters></data></segment></body></omm>
<omm id="CCSDS_OMM_VERS" version="2.0">
<header><CREATION_DATE/><ORIGINATOR/></header><body><segment><metadata><OBJECT_NAME>KUIPER-00166</OBJECT_NAME><OBJECT_ID>2025-217T</OBJECT_ID><CENTER_NAME>EARTH</CENTER_NAME><REF_FRAME>TEME</REF_FRAME><TIME_SYSTEM>UTC</TIME_SYSTEM><MEAN_ELEMENT_THEORY>SGP4</MEAN_ELEMENT_THEORY></metadata><data><meanElements><EPOCH>2025-10-13T06:20:01.950144</EPOCH><MEAN_MOTION>15.36562776</MEAN_MOTION><ECCENTRICITY>.00035883</ECCENTRICITY><INCLINATION>51.8738</INCLINATION><RA_OF_ASC_NODE>356.6834</RA_OF_ASC_NODE><ARG_OF_PERICENTER>107.4274</ARG_OF_PERICENTER><MEAN_ANOMALY>252.7105</MEAN_ANOMALY></meanElements><tleParameters><EPHEMERIS_TYPE>0</EPHEMERIS_TYPE><CLASSIFICATION_TYPE>U</CLASSIFICATION_TYPE><NORAD_CAT_ID>65779</NORAD_CAT_ID><ELEMENT_SET_NO>999</ELEMENT_SET_NO><REV_AT_EPOCH>274</REV_AT_EPOCH><BSTAR>.22893778E-2</BSTAR><MEAN_MOTION_DOT>.8352E-3</MEAN_MOTION_DOT><MEAN_MOTION_DDOT>0</MEAN_MOTION_DDOT></tleParameters></data></segment></body></omm>

</ndm>
