KUIPER-00152            
1 65772U 25217L   25286.25794554  .00041616  00000+0  11331-2 0  9996
2 65772  51.8750 356.6380 0002296  74.2032 285.9208 15.37092177  2742
KUIPER-00153            
1 65773U 25217M   25286.28332904  .00042832  00000+0  12509-2 0  9996
2 65773  51.8645 356.8054 0008622 167.8030 192.3165 15.34856034  2742
KUIPER-00155            
1 65774U 25217N   25286.27472920  .00031328  00000+0  89822-3 0  9990
2 65774  51.8682 356.7537 0005518 156.5280 203.5959 15.35605957  2745
KUIPER-00156            
1 65775U 25217P   25286.19645255  .00050300  00000+0  13797-2 0  9993
2 65775  51.8748 356.9791 0002630 103.2875 256.8405 15.36775919  2737
KUIPER-00158            
1 65776U 25217Q   25286.27222085  .00045342  00000+0  12828-2 0  9999
2 65776  51.8721 356.7379 0005341 151.0535 209.0748 15.35848295  2743
KUIPER-00163            
1 65777U 25217R   25286.28170489  .00047635  00000+0  13821-2 0  9992
2 65777  51.8634 356.7937 0008118 168.7492 191.3676 15.35016887  2746
KUIPER-00165            
1 65778U 25217S   25286.26740295  .00032943  00000+0  92476-3 0  9999
2 65778  51.8727 356.7071 0004141 128.8437 231.2919 15.36247062  2743
KUIPER-00166            
1 65779U 25217T   25286.26391146  .00083520  00000+0  22894-2 0  9990
2 65779  51.8738 356.6834 0003588 107.4274 252.7105 15.36562776  2745
